{
    "links": {
        "self": "http://www.neowsapp.com/rest/v1/neo/3763954?api_key=iIulBulltgU6a56xZRHN4H3l9WmuAYTsLGpBGhQ2"
    },
    "id": "3763954",
    "neo_reference_id": "3763954",
    "name": "(2016 WP1)",
    "designation": "2016 WP1",
    "nasa_jpl_url": "http://ssd.jpl.nasa.gov/sbdb.cgi?sstr=3763954",
    "absolute_magnitude_h": 23.8,
    "estimated_diameter": {
        "kilometers": {
            "estimated_diameter_min": 0.046190746,
            "estimated_diameter_max": 0.1032856481
        },
        "meters": {
            "estimated_diameter_min": 46.1907460282,
            "estimated_diameter_max": 103.2856480504
        },
        "miles": {
            "estimated_diameter_min": 0.0287015901,
            "estimated_diameter_max": 0.0641787064
        },
        "feet": {
            "estimated_diameter_min": 151.544447199,
            "estimated_diameter_max": 338.8636855496
        }
    },
    "is_potentially_hazardous_asteroid": false,
    "close_approach_data": [
        {
            "close_approach_date": "2016-11-24",
            "close_approach_date_full": "2016-Nov-24 11:43",
            "epoch_date_close_approach": 1479987780000,
            "relative_velocity": {
                "kilometers_per_second": "20.1807005983",
                "kilometers_per_hour": "72650.5221537234",
                "miles_per_hour": "45142.20916824"
            },
            "miss_distance": {
                "astronomical": "0.0858503196",
                "lunar": "33.3957743244",
                "kilometers": "12843024.950979252",
                "miles": "7980285.6537755976"
            },
            "orbiting_body": "Earth"
        }
    ],
    "orbital_data": {
        "orbit_id": "9",
        "orbit_determination_date": "2017-04-06 08:22:04",
        "first_observation_date": "2016-11-19",
        "last_observation_date": "2016-11-30",
        "data_arc_in_days": 11,
        "observations_used": 30,
        "orbit_uncertainty": "9",
        "minimum_orbit_intersection": ".0858392",
        "jupiter_tisserand_invariant": "3.799",
        "epoch_osculation": "2457713.5",
        "eccentricity": ".5233882130957498",
        "semi_major_axis": "1.770918260006731",
        "inclination": "30.0069496142214",
        "ascending_node_longitude": "57.12550309301965",
        "orbital_period": "860.7879937915241",
        "perihelion_distance": ".8440405163631735",
        "perihelion_argument": "71.21344219270183",
        "aphelion_distance": "2.697796003650287",
        "perihelion_time": "2457765.611600631586",
        "mean_anomaly": "338.2058109979697",
        "mean_motion": ".4182214466239281",
        "equinox": "J2000",
        "orbit_class": {
            "orbit_class_type": "APO",
            "orbit_class_description": "Near-Earth asteroid orbits which cross the Earth’s orbit similar to that of 1862 Apollo",
            "orbit_class_range": "a (semi-major axis) > 1.0 AU; q (perihelion) < 1.017 AU"
        }
    },
    "is_sentry_object": false
}